STARLINK C              
1 51458U 22010C   22037.00001157 -.00957341  30343-3 -13435-2 0  9991
2 51458  53.2173 162.8262 0079772 163.8403 273.9604 15.98893515  1657
STARLINK D              
1 51459U 22010D   22037.23001983  .03586192  11441-4  19960-2 0  9995
2 51459  53.2230 161.6012 0071354 169.6697 190.8040 16.12601425  1698
LIGHT-1                 
1 51509U 98067TG  22038.63486795  .00021555  00000+0  37583-3 0  9999
2 51509  51.6431 258.1417 0009541 111.1559 249.0380 15.50616758   709
GT-1                    
1 51510U 98067TH  22038.63490248  .00047242  00000+0  80868-3 0  9994
2 51510  51.6416 258.1422 0008616 112.8068 247.3672 15.50727742   728
COSMOS 2553             
1 51511U 22011A   22038.64944443 -.00000044  00000+0 -23383-3 0  9993
2 51511  67.0887 225.2286 0003963 267.1145  92.9344 11.32885074   274
